[{"OBJECT_NAME":"STARLINK-31189","OBJECT_ID":"2024-012A","EPOCH":"2026-03-09T07:40:21.589248","MEAN_MOTION":15.27572094,"ECCENTRICITY":7.65e-5,"INCLINATION":43.0004,"RA_OF_ASC_NODE":166.9767,"ARG_OF_PERICENTER":234.6094,"MEAN_ANOMALY":125.4687,"EPHEMERIS_TYPE":0,"CLASSIFICATION_TYPE":"U","NORAD_CAT_ID":58787,"ELEMENT_SET_NO":999,"REV_AT_EPOCH":12118,"BSTAR":-5.93227e-7,"MEAN_MOTION_DOT":-2.78e-6,"MEAN_MOTION_DDOT":0},{"OBJECT_NAME":"FLOCK 4G-10","OBJECT_ID":"2025-009BP","EPOCH":"2026-03-09T16:59:55.292640","MEAN_MOTION":15.27155944,"ECCENTRICITY":0.00034694,"INCLINATION":97.3967,"RA_OF_ASC_NODE":150.5883,"ARG_OF_PERICENTER":341.4844,"MEAN_ANOMALY":18.6269,"EPHEMERIS_TYPE":0,"CLASSIFICATION_TYPE":"U","NORAD_CAT_ID":62670,"ELEMENT_SET_NO":999,"REV_AT_EPOCH":12134,"BSTAR":0.00052624432,"MEAN_MOTION_DOT":0.00013952,"MEAN_MOTION_DDOT":0}]
